*******************************************************************************
Ephemeris / WWW_USER Fri Mar  7 11:21:25 2025 Pasadena, USA      / Horizons    
*******************************************************************************
Target body name: (2018 VN1)                      {source: JPL#9}
Center body name: Earth (399)                     {source: DE441}
Center-site name: Mauna Kea
*******************************************************************************
Start time      : A.D. 2018-Nov-21 03:51:00.0000 UT      
Stop  time      : A.D. 2018-Nov-21 16:24:00.0000 UT      
Step-size       : 1 minutes
*******************************************************************************
Target pole/equ : undefined
Target radii    : undefined                                                    
Center geodetic : 204.5278, 19.8260847, 4.21024   {E-lon(deg),Lat(deg),Alt(km)}
Center cylindric: 204.5278, 6006.35451, 2151.0229 {E-lon(deg),Dxy(km),Dz(km)}
Center pole/equ : ITRF93                          {East-longitude positive}
Center radii    : 6378.137, 6378.137, 6356.752 km {Equator_a, b, pole_c}       
Target primary  : Sun
Vis. interferer : MOON (R_eq= 1737.400) km        {source: DE441}
Rel. light bend : Sun                             {source: DE441}
Rel. lght bnd GM: 1.3271E+11 km^3/s^2                                          
Small-body perts: Yes                             {source: SB441-N16}
Atmos refraction: NO (AIRLESS)
RA format       : HMS
Time format     : CAL 
Calendar mode   : Mixed Julian/Gregorian
RTS-only print  : NO       
EOP file        : eop.250306.p250602                                           
EOP coverage    : DATA-BASED 1962-JAN-20 TO 2025-MAR-06. PREDICTS-> 2025-JUN-01
Units conversion: 1 au= 149597870.700 km, c= 299792.458 km/s, 1 day= 86400.0 s 
Table cut-offs 1: Elevation (-90.0deg=NO ),Airmass (>38.000=NO), Daylight (YES)
Table cut-offs 2: Solar elongation (  0.0,180.0=NO ),Local Hour Angle( 0.0=NO )
Table cut-offs 3: RA/DEC angular rate (     0.0=NO )                           
*******************************************************************************
Initial IAU76/J2000 heliocentric ecliptic osculating elements (au, days, deg.):
  EPOCH=  2458428.5 ! 2018-Nov-06.00 (TDB)         Residual RMS= .27219        
   EC= .3884608603153671   QR= 1.011903292497374   TP= 2458433.1511739166      
   OM= 228.4137592171332   W=  180.2469578564258   IN= 3.355185598403424       
  Equivalent ICRF heliocentric cartesian coordinates (au, au/d):
   X= 7.364971791856070E-01  Y= 6.361813492829538E-01  Z= 2.815132693616627E-01
  VX=-1.417073247356795E-02 VY= 1.354428742085641E-02 VZ= 4.590405825264917E-03
Asteroid physical parameters (km, seconds, rotational period in hours):        
   GM= n.a.                RAD= n.a.               ROTPER= n.a.                
   H= 26.2                 G= .150                 B-V= n.a.                   
                           ALBEDO= n.a.            STYP= n.a.                  
*******************************************************************************
 Date__(UT)__HR:MN     R.A._________(ICRF)_________DEC
******************************************************
$$SOE
 2018-Nov-21 10:00  m  07 18 45.237534 +06 55 33.85016
 2018-Nov-21 10:01  m  07 18 45.414119 +06 55 32.07854
 2018-Nov-21 10:02  m  07 18 45.590513 +06 55 30.30684
 2018-Nov-21 10:03  m  07 18 45.766715 +06 55 28.53503
 2018-Nov-21 10:04  m  07 18 45.942727 +06 55 26.76313
 2018-Nov-21 10:05  m  07 18 46.118548 +06 55 24.99113
 2018-Nov-21 10:06  m  07 18 46.294180 +06 55 23.21903
 2018-Nov-21 10:07  m  07 18 46.469623 +06 55 21.44683
 2018-Nov-21 10:08  m  07 18 46.644877 +06 55 19.67453
 2018-Nov-21 10:09  m  07 18 46.819943 +06 55 17.90212
 2018-Nov-21 10:10  m  07 18 46.994823 +06 55 16.12961
 2018-Nov-21 10:11  m  07 18 47.169515 +06 55 14.35700
 2018-Nov-21 10:12  m  07 18 47.344021 +06 55 12.58427
 2018-Nov-21 10:13  m  07 18 47.518342 +06 55 10.81144
 2018-Nov-21 10:14  m  07 18 47.692478 +06 55 09.03849
 2018-Nov-21 10:15  m  07 18 47.866430 +06 55 07.26544
 2018-Nov-21 10:16  m  07 18 48.040198 +06 55 05.49227
 2018-Nov-21 10:17  m  07 18 48.213782 +06 55 03.71899
 2018-Nov-21 10:18  m  07 18 48.387185 +06 55 01.94559
 2018-Nov-21 10:19  m  07 18 48.560405 +06 55 00.17208
 2018-Nov-21 10:20  m  07 18 48.733444 +06 54 58.39845
 2018-Nov-21 10:21  m  07 18 48.906303 +06 54 56.62470
 2018-Nov-21 10:22  m  07 18 49.078981 +06 54 54.85084
 2018-Nov-21 10:23  m  07 18 49.251480 +06 54 53.07685
 2018-Nov-21 10:24  m  07 18 49.423801 +06 54 51.30274
 2018-Nov-21 10:25  m  07 18 49.595943 +06 54 49.52850
 2018-Nov-21 10:26  m  07 18 49.767908 +06 54 47.75414
 2018-Nov-21 10:27  m  07 18 49.939696 +06 54 45.97966
 2018-Nov-21 10:28  m  07 18 50.111307 +06 54 44.20505
 2018-Nov-21 10:29  m  07 18 50.282744 +06 54 42.43031
 2018-Nov-21 10:30  m  07 18 50.454005 +06 54 40.65544
 2018-Nov-21 10:31  m  07 18 50.625092 +06 54 38.88045
 2018-Nov-21 10:32  m  07 18 50.796005 +06 54 37.10532
 2018-Nov-21 10:33  m  07 18 50.966745 +06 54 35.33005
 2018-Nov-21 10:34  m  07 18 51.137313 +06 54 33.55466
 2018-Nov-21 10:35  m  07 18 51.307710 +06 54 31.77913
 2018-Nov-21 10:36  m  07 18 51.477935 +06 54 30.00346
 2018-Nov-21 10:37  m  07 18 51.647990 +06 54 28.22766
 2018-Nov-21 10:38  m  07 18 51.817876 +06 54 26.45172
 2018-Nov-21 10:39  m  07 18 51.987592 +06 54 24.67564
 2018-Nov-21 10:40  m  07 18 52.157141 +06 54 22.89942
 2018-Nov-21 10:41  m  07 18 52.326521 +06 54 21.12305
 2018-Nov-21 10:42  m  07 18 52.495735 +06 54 19.34655
 2018-Nov-21 10:43  m  07 18 52.664783 +06 54 17.56990
 2018-Nov-21 10:44  m  07 18 52.833665 +06 54 15.79311
 2018-Nov-21 10:45  m  07 18 53.002382 +06 54 14.01617
 2018-Nov-21 10:46  m  07 18 53.170934 +06 54 12.23908
 2018-Nov-21 10:47  m  07 18 53.339324 +06 54 10.46185
 2018-Nov-21 10:48  m  07 18 53.507550 +06 54 08.68447
 2018-Nov-21 10:49  m  07 18 53.675615 +06 54 06.90694
 2018-Nov-21 10:50  m  07 18 53.843518 +06 54 05.12925
 2018-Nov-21 10:51  m  07 18 54.011261 +06 54 03.35142
 2018-Nov-21 10:52  m  07 18 54.178843 +06 54 01.57343
 2018-Nov-21 10:53  m  07 18 54.346267 +06 53 59.79529
 2018-Nov-21 10:54  m  07 18 54.513531 +06 53 58.01699
 2018-Nov-21 10:55  m  07 18 54.680638 +06 53 56.23854
 2018-Nov-21 10:56  m  07 18 54.847588 +06 53 54.45993
 2018-Nov-21 10:57  m  07 18 55.014382 +06 53 52.68116
 2018-Nov-21 10:58  m  07 18 55.181019 +06 53 50.90223
 2018-Nov-21 10:59  m  07 18 55.347502 +06 53 49.12314
 2018-Nov-21 11:00  m  07 18 55.513831 +06 53 47.34389
 2018-Nov-21 11:01  m  07 18 55.680006 +06 53 45.56448
 2018-Nov-21 11:02  m  07 18 55.846029 +06 53 43.78491
 2018-Nov-21 11:03  m  07 18 56.011899 +06 53 42.00517
 2018-Nov-21 11:04  m  07 18 56.177619 +06 53 40.22527
 2018-Nov-21 11:05  m  07 18 56.343188 +06 53 38.44520
 2018-Nov-21 11:06  m  07 18 56.508607 +06 53 36.66496
 2018-Nov-21 11:07  m  07 18 56.673877 +06 53 34.88456
 2018-Nov-21 11:08  m  07 18 56.838998 +06 53 33.10399
 2018-Nov-21 11:09  m  07 18 57.003973 +06 53 31.32325
 2018-Nov-21 11:10  m  07 18 57.168800 +06 53 29.54234
 2018-Nov-21 11:11  m  07 18 57.333482 +06 53 27.76125
 2018-Nov-21 11:12  m  07 18 57.498018 +06 53 25.98000
 2018-Nov-21 11:13  m  07 18 57.662410 +06 53 24.19857
 2018-Nov-21 11:14  m  07 18 57.826658 +06 53 22.41696
 2018-Nov-21 11:15  m  07 18 57.990763 +06 53 20.63519
 2018-Nov-21 11:16  m  07 18 58.154726 +06 53 18.85323
 2018-Nov-21 11:17  m  07 18 58.318548 +06 53 17.07110
 2018-Nov-21 11:18  m  07 18 58.482229 +06 53 15.28879
 2018-Nov-21 11:19  m  07 18 58.645770 +06 53 13.50631
 2018-Nov-21 11:20  m  07 18 58.809172 +06 53 11.72364
 2018-Nov-21 11:21  m  07 18 58.972435 +06 53 09.94079
 2018-Nov-21 11:22  m  07 18 59.135562 +06 53 08.15776
 2018-Nov-21 11:23  m  07 18 59.298551 +06 53 06.37455
 2018-Nov-21 11:24  m  07 18 59.461405 +06 53 04.59116
 2018-Nov-21 11:25  m  07 18 59.624123 +06 53 02.80759
 2018-Nov-21 11:26  m  07 18 59.786707 +06 53 01.02383
 2018-Nov-21 11:27  m  07 18 59.949157 +06 52 59.23988
 2018-Nov-21 11:28  m  07 19 00.111475 +06 52 57.45575
 2018-Nov-21 11:29  m  07 19 00.273661 +06 52 55.67143
 2018-Nov-21 11:30  m  07 19 00.435715 +06 52 53.88692
 2018-Nov-21 11:31  m  07 19 00.597640 +06 52 52.10223
 2018-Nov-21 11:32  m  07 19 00.759434 +06 52 50.31735
 2018-Nov-21 11:33  m  07 19 00.921100 +06 52 48.53227
 2018-Nov-21 11:34  m  07 19 01.082638 +06 52 46.74701
 2018-Nov-21 11:35  m  07 19 01.244049 +06 52 44.96155
 2018-Nov-21 11:36  m  07 19 01.405333 +06 52 43.17590
 2018-Nov-21 11:37  m  07 19 01.566492 +06 52 41.39006
 2018-Nov-21 11:38  m  07 19 01.727526 +06 52 39.60403
 2018-Nov-21 11:39  m  07 19 01.888437 +06 52 37.81780
 2018-Nov-21 11:40  m  07 19 02.049224 +06 52 36.03138
 2018-Nov-21 11:41  m  07 19 02.209889 +06 52 34.24476
 2018-Nov-21 11:42  m  07 19 02.370433 +06 52 32.45794
 2018-Nov-21 11:43  m  07 19 02.530856 +06 52 30.67093
 2018-Nov-21 11:44  m  07 19 02.691159 +06 52 28.88371
 2018-Nov-21 11:45  m  07 19 02.851344 +06 52 27.09630
 2018-Nov-21 11:46  m  07 19 03.011410 +06 52 25.30869
 2018-Nov-21 11:47  m  07 19 03.171359 +06 52 23.52088
 2018-Nov-21 11:48  m  07 19 03.331192 +06 52 21.73287
 2018-Nov-21 11:49  m  07 19 03.490909 +06 52 19.94466
 2018-Nov-21 11:50  m  07 19 03.650511 +06 52 18.15625
 2018-Nov-21 11:51  m  07 19 03.809999 +06 52 16.36763
 2018-Nov-21 11:52  m  07 19 03.969375 +06 52 14.57881
 2018-Nov-21 11:53  m  07 19 04.128638 +06 52 12.78979
 2018-Nov-21 11:54  m  07 19 04.287789 +06 52 11.00056
 2018-Nov-21 11:55  m  07 19 04.446831 +06 52 09.21113
 2018-Nov-21 11:56  m  07 19 04.605762 +06 52 07.42149
 2018-Nov-21 11:57  m  07 19 04.764585 +06 52 05.63164
 2018-Nov-21 11:58  m  07 19 04.923299 +06 52 03.84159
 2018-Nov-21 11:59  m  07 19 05.081907 +06 52 02.05133
 2018-Nov-21 12:00  m  07 19 05.240408 +06 52 00.26086
 2018-Nov-21 12:01  m  07 19 05.398804 +06 51 58.47018
 2018-Nov-21 12:02  m  07 19 05.557096 +06 51 56.67929
